CCSDS_OMM_VERS = 2.0
CREATION_DATE  = 
ORIGINATOR     = 

OBJECT_NAME    = CZ-2D R/B
OBJECT_ID      = 2005-024B
CENTER_NAME    = EARTH
REF_FRAME      = TEME
TIME_SYSTEM    = UTC
MEAN_ELEMENT_THEORY = SGP/SGP4

EPOCH          = 2025-11-26T23:54:26.495136
MEAN_MOTION    = 15.52122793
ECCENTRICITY   = .00076802
INCLINATION    = 97.3649
RA_OF_ASC_NODE = 338.0435
ARG_OF_PERICENTER = 52.9341
MEAN_ANOMALY   = 307.2613

EPHEMERIS_TYPE = 0
CLASSIFICATION_TYPE = U
NORAD_CAT_ID   = 28738
ELEMENT_SET_NO = 999
REV_AT_EPOCH   = 12381
BSTAR          = .5233742E-3
MEAN_MOTION_DOT = .31642E-3
MEAN_MOTION_DDOT = 0

CCSDS_OMM_VERS = 2.0
CREATION_DATE  = 
ORIGINATOR     = 

OBJECT_NAME    = ALOS (DAICHI)
OBJECT_ID      = 2006-002A
CENTER_NAME    = EARTH
REF_FRAME      = TEME
TIME_SYSTEM    = UTC
MEAN_ELEMENT_THEORY = SGP/SGP4

EPOCH          = 2025-11-27T07:21:03.472416
MEAN_MOTION    = 14.69414189
ECCENTRICITY   = .00006955
INCLINATION    = 98.1073
RA_OF_ASC_NODE = 282.9054
ARG_OF_PERICENTER = 85.6885
MEAN_ANOMALY   = 274.4400

EPHEMERIS_TYPE = 0
CLASSIFICATION_TYPE = U
NORAD_CAT_ID   = 28931
ELEMENT_SET_NO = 999
REV_AT_EPOCH   = 5844
BSTAR          = .31011393E-3
MEAN_MOTION_DOT = .1786E-4
MEAN_MOTION_DDOT = 0

CCSDS_OMM_VERS = 2.0
CREATION_DATE  = 
ORIGINATOR     = 

OBJECT_NAME    = H-2A R/B
OBJECT_ID      = 2006-002B
CENTER_NAME    = EARTH
REF_FRAME      = TEME
TIME_SYSTEM    = UTC
MEAN_ELEMENT_THEORY = SGP/SGP4

EPOCH          = 2025-11-26T22:14:29.309568
MEAN_MOTION    = 15.14098793
ECCENTRICITY   = .0054478
INCLINATION    = 98.2311
RA_OF_ASC_NODE = 104.3907
ARG_OF_PERICENTER = 230.3187
MEAN_ANOMALY   = 129.3232

EPHEMERIS_TYPE = 0
CLASSIFICATION_TYPE = U
NORAD_CAT_ID   = 28932
ELEMENT_SET_NO = 999
REV_AT_EPOCH   = 7887
BSTAR          = .64487244E-3
MEAN_MOTION_DOT = .12111E-3
MEAN_MOTION_DDOT = 0

CCSDS_OMM_VERS = 2.0
CREATION_DATE  = 
ORIGINATOR     = 

OBJECT_NAME    = RESURS-DK 1
OBJECT_ID      = 2006-021A
CENTER_NAME    = EARTH
REF_FRAME      = TEME
TIME_SYSTEM    = UTC
MEAN_ELEMENT_THEORY = SGP/SGP4

EPOCH          = 2025-11-26T22:53:26.442528
MEAN_MOTION    = 15.12023279
ECCENTRICITY   = .00075635
INCLINATION    = 69.9317
RA_OF_ASC_NODE = 142.6282
ARG_OF_PERICENTER = 270.2581
MEAN_ANOMALY   = 89.7718

EPHEMERIS_TYPE = 0
CLASSIFICATION_TYPE = U
NORAD_CAT_ID   = 29228
ELEMENT_SET_NO = 999
REV_AT_EPOCH   = 7199
BSTAR          = .22516713E-3
MEAN_MOTION_DOT = .3774E-4
MEAN_MOTION_DDOT = 0

CCSDS_OMM_VERS = 2.0
CREATION_DATE  = 
ORIGINATOR     = 

OBJECT_NAME    = CZ-4B R/B
OBJECT_ID      = 2006-046C
CENTER_NAME    = EARTH
REF_FRAME      = TEME
TIME_SYSTEM    = UTC
MEAN_ELEMENT_THEORY = SGP/SGP4

EPOCH          = 2025-11-27T01:22:32.369376
MEAN_MOTION    = 15.15639244
ECCENTRICITY   = .00325881
INCLINATION    = 97.5758
RA_OF_ASC_NODE = 11.2386
ARG_OF_PERICENTER = 262.7168
MEAN_ANOMALY   = 97.0360

EPHEMERIS_TYPE = 0
CLASSIFICATION_TYPE = U
NORAD_CAT_ID   = 29507
ELEMENT_SET_NO = 999
REV_AT_EPOCH   = 4449
BSTAR          = .33578452E-3
MEAN_MOTION_DOT = .64E-4
MEAN_MOTION_DDOT = 0

CCSDS_OMM_VERS = 2.0
CREATION_DATE  = 
ORIGINATOR     = 

OBJECT_NAME    = CZ-2C R/B
OBJECT_ID      = 2007-010B
CENTER_NAME    = EARTH
REF_FRAME      = TEME
TIME_SYSTEM    = UTC
MEAN_ELEMENT_THEORY = SGP/SGP4

EPOCH          = 2025-11-27T06:56:55.721184
MEAN_MOTION    = 14.20199940
ECCENTRICITY   = .00581856
INCLINATION    = 98.3968
RA_OF_ASC_NODE = 84.7185
ARG_OF_PERICENTER = 231.2266
MEAN_ANOMALY   = 128.3705

EPHEMERIS_TYPE = 0
CLASSIFICATION_TYPE = U
NORAD_CAT_ID   = 31114
ELEMENT_SET_NO = 999
REV_AT_EPOCH   = 96518
BSTAR          = .10934214E-3
MEAN_MOTION_DOT = .196E-5
MEAN_MOTION_DDOT = 0

CCSDS_OMM_VERS = 2.0
CREATION_DATE  = 
ORIGINATOR     = 

OBJECT_NAME    = COSMO-SKYMED 1
OBJECT_ID      = 2007-023A
CENTER_NAME    = EARTH
REF_FRAME      = TEME
TIME_SYSTEM    = UTC
MEAN_ELEMENT_THEORY = SGP/SGP4

EPOCH          = 2025-11-27T06:24:48.112992
MEAN_MOTION    = 14.95593615
ECCENTRICITY   = .0001497
INCLINATION    = 97.8847
RA_OF_ASC_NODE = 156.5664
ARG_OF_PERICENTER = 90.4128
MEAN_ANOMALY   = 269.7264

EPHEMERIS_TYPE = 0
CLASSIFICATION_TYPE = U
NORAD_CAT_ID   = 31598
ELEMENT_SET_NO = 999
REV_AT_EPOCH   = 99958
BSTAR          = .45630726E-3
MEAN_MOTION_DOT = .5007E-4
MEAN_MOTION_DDOT = 0

CCSDS_OMM_VERS = 2.0
CREATION_DATE  = 
ORIGINATOR     = 

OBJECT_NAME    = COSMOS 2428
OBJECT_ID      = 2007-029A
CENTER_NAME    = EARTH
REF_FRAME      = TEME
TIME_SYSTEM    = UTC
MEAN_ELEMENT_THEORY = SGP/SGP4

EPOCH          = 2025-11-27T05:36:24.394752
MEAN_MOTION    = 14.12886587
ECCENTRICITY   = .0002823
INCLINATION    = 70.9375
RA_OF_ASC_NODE = 58.4353
ARG_OF_PERICENTER = 48.4378
MEAN_ANOMALY   = 311.6985

EPHEMERIS_TYPE = 0
CLASSIFICATION_TYPE = U
NORAD_CAT_ID   = 31792
ELEMENT_SET_NO = 999
REV_AT_EPOCH   = 94962
BSTAR          = -.21314435E-4
MEAN_MOTION_DOT = -.88E-6
MEAN_MOTION_DDOT = 0

CCSDS_OMM_VERS = 2.0
CREATION_DATE  = 
ORIGINATOR     = 

OBJECT_NAME    = SL-16 R/B
OBJECT_ID      = 2007-029B
CENTER_NAME    = EARTH
REF_FRAME      = TEME
TIME_SYSTEM    = UTC
MEAN_ELEMENT_THEORY = SGP/SGP4

EPOCH          = 2025-11-27T07:57:37.006848
MEAN_MOTION    = 14.14817094
ECCENTRICITY   = .00024092
INCLINATION    = 70.9778
RA_OF_ASC_NODE = 27.5466
ARG_OF_PERICENTER = 265.8070
MEAN_ANOMALY   = 164.7909

EPHEMERIS_TYPE = 0
CLASSIFICATION_TYPE = U
NORAD_CAT_ID   = 31793
ELEMENT_SET_NO = 999
REV_AT_EPOCH   = 95089
BSTAR          = -.9547448E-5
MEAN_MOTION_DOT = -.66E-6
MEAN_MOTION_DDOT = 0

CCSDS_OMM_VERS = 2.0
CREATION_DATE  = 
ORIGINATOR     = 

OBJECT_NAME    = KORONAS-FOTON
OBJECT_ID      = 2009-003A
CENTER_NAME    = EARTH
REF_FRAME      = TEME
TIME_SYSTEM    = UTC
MEAN_ELEMENT_THEORY = SGP/SGP4

EPOCH          = 2025-11-27T05:37:18.847488
MEAN_MOTION    = 15.40694311
ECCENTRICITY   = .00121719
INCLINATION    = 82.4326
RA_OF_ASC_NODE = 22.1652
ARG_OF_PERICENTER = 159.2623
MEAN_ANOMALY   = 200.9119

EPHEMERIS_TYPE = 0
CLASSIFICATION_TYPE = U
NORAD_CAT_ID   = 33504
ELEMENT_SET_NO = 999
REV_AT_EPOCH   = 92995
BSTAR          = .32633463E-3
MEAN_MOTION_DOT = .13393E-3
MEAN_MOTION_DDOT = 0

CCSDS_OMM_VERS = 2.0
CREATION_DATE  = 
ORIGINATOR     = 

OBJECT_NAME    = CZ-2C R/B
OBJECT_ID      = 2011-030B
CENTER_NAME    = EARTH
REF_FRAME      = TEME
TIME_SYSTEM    = UTC
MEAN_ELEMENT_THEORY = SGP/SGP4

EPOCH          = 2025-11-26T22:02:29.037696
MEAN_MOTION    = 14.80818190
ECCENTRICITY   = .00521693
INCLINATION    = 97.8394
RA_OF_ASC_NODE = 285.3783
ARG_OF_PERICENTER = 326.3852
MEAN_ANOMALY   = 99.0734

EPHEMERIS_TYPE = 0
CLASSIFICATION_TYPE = U
NORAD_CAT_ID   = 37731
ELEMENT_SET_NO = 999
REV_AT_EPOCH   = 77488
BSTAR          = .27375022E-3
MEAN_MOTION_DOT = .2106E-4
MEAN_MOTION_DDOT = 0

CCSDS_OMM_VERS = 2.0
CREATION_DATE  = 
ORIGINATOR     = 

OBJECT_NAME    = H-2A R/B
OBJECT_ID      = 2012-025E
CENTER_NAME    = EARTH
REF_FRAME      = TEME
TIME_SYSTEM    = UTC
MEAN_ELEMENT_THEORY = SGP/SGP4

EPOCH          = 2025-11-27T05:44:28.735008
MEAN_MOTION    = 14.94293297
ECCENTRICITY   = .00437703
INCLINATION    = 98.4582
RA_OF_ASC_NODE = 285.2785
ARG_OF_PERICENTER = 288.8831
MEAN_ANOMALY   = 70.7644

EPHEMERIS_TYPE = 0
CLASSIFICATION_TYPE = U
NORAD_CAT_ID   = 38341
ELEMENT_SET_NO = 999
REV_AT_EPOCH   = 73291
BSTAR          = .36554496E-3
MEAN_MOTION_DOT = .3931E-4
MEAN_MOTION_DDOT = 0

