CZ-2D R/B               
1 28738U 05024B   25330.99613999  .00031642  00000+0  52337-3 0  9995
2 28738  97.3649 338.0435 0007680  52.9341 307.2613 15.52122793123813
ALOS (DAICHI)           
1 28931U 06002A   25331.30629019  .00001786  00000+0  31011-3 0  9995
2 28931  98.1073 282.9054 0000695  85.6885 274.4400 14.69414189 58442
H-2A R/B                
1 28932U 06002B   25330.92672812  .00012111  00000+0  64487-3 0  9999
2 28932  98.2311 104.3907 0054478 230.3187 129.3232 15.14098793 78875
RESURS-DK 1             
1 29228U 06021A   25330.95377826  .00003774  00000+0  22517-3 0  9992
2 29228  69.9317 142.6282 0007563 270.2581  89.7718 15.12023279 71999
CZ-4B R/B               
1 29507U 06046C   25331.05731909  .00006400  00000+0  33578-3 0  9995
2 29507  97.5758  11.2386 0032588 262.7168  97.0360 15.15639244 44491
CZ-2C R/B               
1 31114U 07010B   25331.28953381  .00000196  00000+0  10934-3 0  9996
2 31114  98.3968  84.7185 0058185 231.2266 128.3705 14.20199940965181
COSMO-SKYMED 1          
1 31598U 07023A   25331.26722353  .00005007  00000+0  45631-3 0  9995
2 31598  97.8847 156.5664 0001497  90.4128 269.7264 14.95593615999583
COSMOS 2428             
1 31792U 07029A   25331.23361568 -.00000088  00000+0 -21314-4 0  9990
2 31792  70.9375  58.4353 0002823  48.4378 311.6985 14.12886587949625
SL-16 R/B               
1 31793U 07029B   25331.33167832 -.00000066  00000+0 -95474-5 0  9995
2 31793  70.9778  27.5466 0002409 265.8070 164.7909 14.14817094950892
KORONAS-FOTON           
1 33504U 09003A   25331.23424592  .00013393  00000+0  32633-3 0  9990
2 33504  82.4326  22.1652 0012171 159.2623 200.9119 15.40694311929950
CZ-2C R/B               
1 37731U 11030B   25330.91839164  .00002106  00000+0  27375-3 0  9995
2 37731  97.8394 285.3783 0052169 326.3852  99.0734 14.80818190774887
H-2A R/B                
1 38341U 12025E   25331.23922147  .00003931  00000+0  36554-3 0  9994
2 38341  98.4582 285.2785 0043770 288.8831  70.7644 14.94293297732913
